CCSDS_OMM_VERS = 2.0
CREATION_DATE  = 
ORIGINATOR     = 

OBJECT_NAME    = CZ-2C R/B
OBJECT_ID      = 2022-132E
CENTER_NAME    = EARTH
REF_FRAME      = TEME
TIME_SYSTEM    = UTC
MEAN_ELEMENT_THEORY = SGP/SGP4

EPOCH          = 2025-12-07T23:19:42.842496
MEAN_MOTION    = 15.54379379
ECCENTRICITY   = .00235258
INCLINATION    = 97.2946
RA_OF_ASC_NODE = 338.0804
ARG_OF_PERICENTER = 72.5849
MEAN_ANOMALY   = 287.7975

EPHEMERIS_TYPE = 0
CLASSIFICATION_TYPE = U
NORAD_CAT_ID   = 54039
ELEMENT_SET_NO = 999
REV_AT_EPOCH   = 17609
BSTAR          = .6403842E-3
MEAN_MOTION_DOT = .42537E-3
MEAN_MOTION_DDOT = 0

CCSDS_OMM_VERS = 2.0
CREATION_DATE  = 
ORIGINATOR     = 

OBJECT_NAME    = GSLV R/B
OBJECT_ID      = 2022-138AN
CENTER_NAME    = EARTH
REF_FRAME      = TEME
TIME_SYSTEM    = UTC
MEAN_ELEMENT_THEORY = SGP/SGP4

EPOCH          = 2025-12-07T15:19:45.967008
MEAN_MOTION    = 14.96094330
ECCENTRICITY   = .00237617
INCLINATION    = 87.3829
RA_OF_ASC_NODE = 197.1825
ARG_OF_PERICENTER = 122.4023
MEAN_ANOMALY   = 237.9512

EPHEMERIS_TYPE = 0
CLASSIFICATION_TYPE = U
NORAD_CAT_ID   = 54149
ELEMENT_SET_NO = 999
REV_AT_EPOCH   = 17016
BSTAR          = .37556721E-3
MEAN_MOTION_DOT = .4272E-4
MEAN_MOTION_DDOT = 0

CCSDS_OMM_VERS = 2.0
CREATION_DATE  = 
ORIGINATOR     = 

OBJECT_NAME    = XRISM
OBJECT_ID      = 2023-137A
CENTER_NAME    = EARTH
REF_FRAME      = TEME
TIME_SYSTEM    = UTC
MEAN_ELEMENT_THEORY = SGP/SGP4

EPOCH          = 2025-12-07T19:28:27.386112
MEAN_MOTION    = 15.10265387
ECCENTRICITY   = .0007663
INCLINATION    = 31.0001
RA_OF_ASC_NODE = 157.3619
ARG_OF_PERICENTER = 195.6048
MEAN_ANOMALY   = 164.4354

EPHEMERIS_TYPE = 0
CLASSIFICATION_TYPE = U
NORAD_CAT_ID   = 57800
ELEMENT_SET_NO = 999
REV_AT_EPOCH   = 12388
BSTAR          = .44333842E-3
MEAN_MOTION_DOT = .7537E-4
MEAN_MOTION_DDOT = 0

CCSDS_OMM_VERS = 2.0
CREATION_DATE  = 
ORIGINATOR     = 

OBJECT_NAME    = ACS3
OBJECT_ID      = 2024-077B
CENTER_NAME    = EARTH
REF_FRAME      = TEME
TIME_SYSTEM    = UTC
MEAN_ELEMENT_THEORY = SGP/SGP4

EPOCH          = 2025-12-07T21:57:20.296800
MEAN_MOTION    = 13.85122195
ECCENTRICITY   = .00780257
INCLINATION    = 97.2728
RA_OF_ASC_NODE = 298.5977
ARG_OF_PERICENTER = 349.1031
MEAN_ANOMALY   = 10.8437

EPHEMERIS_TYPE = 0
CLASSIFICATION_TYPE = U
NORAD_CAT_ID   = 59588
ELEMENT_SET_NO = 999
REV_AT_EPOCH   = 8147
BSTAR          = .33983215E-1
MEAN_MOTION_DOT = .39592E-3
MEAN_MOTION_DDOT = 0

CCSDS_OMM_VERS = 2.0
CREATION_DATE  = 
ORIGINATOR     = 

OBJECT_NAME    = SZ-21 MODULE
OBJECT_ID      = 2025-246C
CENTER_NAME    = EARTH
REF_FRAME      = TEME
TIME_SYSTEM    = UTC
MEAN_ELEMENT_THEORY = SGP/SGP4

EPOCH          = 2025-12-07T20:56:43.117728
MEAN_MOTION    = 15.62136924
ECCENTRICITY   = .00062043
INCLINATION    = 41.4776
RA_OF_ASC_NODE = 45.7288
ARG_OF_PERICENTER = 233.3043
MEAN_ANOMALY   = 126.7226

EPHEMERIS_TYPE = 0
CLASSIFICATION_TYPE = U
NORAD_CAT_ID   = 66515
ELEMENT_SET_NO = 999
REV_AT_EPOCH   = 368
BSTAR          = .33745404E-3
MEAN_MOTION_DOT = .30277E-3
MEAN_MOTION_DDOT = 0

