CZ-2C R/B               
1 54039U 22132E   25341.97202364  .00042537  00000+0  64038-3 0  9993
2 54039  97.2946 338.0804 0023525  72.5849 287.7975 15.54379379176099
GSLV R/B                
1 54149U 22138AN  25341.63872647  .00004272  00000+0  37557-3 0  9991
2 54149  87.3829 197.1825 0023761 122.4023 237.9512 14.96094330170161
XRISM                   
1 57800U 23137A   25341.81142808  .00007537  00000+0  44334-3 0  9995
2 57800  31.0001 157.3619 0007663 195.6048 164.4354 15.10265387123881
ACS3                    
1 59588U 24077B   25341.91481825  .00039592  00000+0  33983-1 0  9992
2 59588  97.2728 298.5977 0078025 349.1031  10.8437 13.85122195 81472
SZ-21 MODULE            
1 66515U 25246C   25341.87272127  .00030277  00000+0  33745-3 0  9996
2 66515  41.4776  45.7288 0006204 233.3043 126.7226 15.62136924  3680
